{"type": "FeatureCollection", "features": [ {"type": "Feature", "properties": {"norad_id": 28649, "name": "IRS-P5 (CARTOSAT-1)", "group": "resource", "lat": 21.279294699389414, "lon": -158.26738985682067, "alt_km": 596.7613111914407, "timestamp": "2025-12-18T14:52:07.686903+00:00", "meta": {"OBJECT_NAME": "IRS-P5 (CARTOSAT-1)", "OBJECT_ID": "2005-017A", "EPOCH": "2025-12-18T07:42:54.971712", "MEAN_MOTION": 14.90423643, "ECCENTRICITY": 8.869e-05, "INCLINATION": 97.5488, "RA_OF_ASC_NODE": 18.4873, "ARG_OF_PERICENTER": 47.1352, "MEAN_ANOMALY": 312.9941, "EPHEMERIS_TYPE": 0, "CLASSIFICATION_TYPE": "U", "NORAD_CAT_ID": 28649, "ELEMENT_SET_NO": 999, "REV_AT_EPOCH": 11687, "BSTAR": 0.00013310517, "MEAN_MOTION_DOT": 1.245e-05, "MEAN_MOTION_DDOT": 0}, "tle": {"line1": "1 28649U 05017A   25352.32146958  .00001245  00000+0  13311-3 0  9990", "line2": "2 28649  97.5488  18.4873 0000886  47.1352 312.9941 14.90423643116875"}}, "geometry": {"type": "Point", "coordinates": [-158.26738985682067, 21.279294699389414]}}, {"type": "Feature", "properties": {"norad_id": 28893, "name": "SINAH 1", "group": "resource", "lat": -46.42976417585131, "lon": 129.97684635908922, "alt_km": 697.8566608503907, "timestamp": "2025-12-18T14:52:07.686914+00:00", "meta": {"OBJECT_NAME": "SINAH 1", "OBJECT_ID": "2005-043D", "EPOCH": "2025-12-18T06:52:55.722720", "MEAN_MOTION": 14.6396848, "ECCENTRICITY": 0.00155678, "INCLINATION": 98.2606, "RA_OF_ASC_NODE": 120.8589, "ARG_OF_PERICENTER": 120.713, "MEAN_ANOMALY": 239.5608, "EPHEMERIS_TYPE": 0, "CLASSIFICATION_TYPE": "U", "NORAD_CAT_ID": 28893, "ELEMENT_SET_NO": 999, "REV_AT_EPOCH": 7405, "BSTAR": 7.815659e-05, "MEAN_MOTION_DOT": 3.61e-06, "MEAN_MOTION_DDOT": 0}, "tle": {"line1": "1 28893U 05043D   25352.28675605  .00000361  00000+0  78157-4 0  9999", "line2": "2 28893  98.2606 120.8589 0015567 120.7130 239.5608 14.63968480 74052"}}, "geometry": {"type": "Point", "coordinates": [129.97684635908922, -46.42976417585131]}}, {"type": "Feature", "properties": {"norad_id": 29079, "name": "EROS B", "group": "resource", "lat": 26.309008415634512, "lon": 105.82379709627902, "alt_km": 357.30060504702124, "timestamp": "2025-12-18T14:52:07.686925+00:00", "meta": {"OBJECT_NAME": "EROS B", "OBJECT_ID": "2006-014A", "EPOCH": "2025-12-18T07:06:28.865952", "MEAN_MOTION": 15.70010863, "ECCENTRICITY": 0.00031435, "INCLINATION": 97.3463, "RA_OF_ASC_NODE": 109.1416, "ARG_OF_PERICENTER": 310.9662, "MEAN_ANOMALY": 49.1328, "EPHEMERIS_TYPE": 0, "CLASSIFICATION_TYPE": "U", "NORAD_CAT_ID": 29079, "ELEMENT_SET_NO": 999, "REV_AT_EPOCH": 9167, "BSTAR": 0.0013477145, "MEAN_MOTION_DOT": 0.00164609, "MEAN_MOTION_DDOT": 0}, "tle": {"line1": "1 29079U 06014A   25352.29616743  .00164609  00000+0  13477-2 0  9992", "line2": "2 29079  97.3463 109.1416 0003143 310.9662  49.1328 15.70010863 91672"}}, "geometry": {"type": "Point", "coordinates": [105.82379709627902, 26.309008415634512]}}, {"type": "Feature", "properties": {"norad_id": 29228, "name": "RESURS-DK 1", "group": "resource", "lat": -5.9594112102931645, "lon": -91.16964281277679, "alt_km": 530.8927330160514, "timestamp": "2025-12-18T14:52:07.686935+00:00", "meta": {"OBJECT_NAME": "RESURS-DK 1", "OBJECT_ID": "2006-021A", "EPOCH": "2025-12-18T06:06:34.727904", "MEAN_MOTION": 15.121919, "ECCENTRICITY": 0.00068951, "INCLINATION": 69.9337, "RA_OF_ASC_NODE": 87.5863, "ARG_OF_PERICENTER": 254.6917, "MEAN_ANOMALY": 105.3487, "EPHEMERIS_TYPE": 0, "CLASSIFICATION_TYPE": "U", "NORAD_CAT_ID": 29228, "ELEMENT_SET_NO": 999, "REV_AT_EPOCH": 7521, "BSTAR": 0.00013720714, "MEAN_MOTION_DOT": 2.267e-05, "MEAN_MOTION_DDOT": 0}, "tle": {"line1": "1 29228U 06021A   25352.25456861  .00002267  00000+0  13721-3 0  9999", "line2": "2 29228  69.9337  87.5863 0006895 254.6917 105.3487 15.12191900 75213"}}, "geometry": {"type": "Point", "coordinates": [-91.16964281277679, -5.9594112102931645]}}, {"type": "Feature", "properties": {"norad_id": 29268, "name": "ARIRANG-2 (KOMPSAT-2)", "group": "resource", "lat": -48.863758172873844, "lon": -8.25380580544574, "alt_km": 680.8299097940744, "timestamp": "2025-12-18T14:52:07.686946+00:00", "meta": {"OBJECT_NAME": "ARIRANG-2 (KOMPSAT-2)", "OBJECT_ID": "2006-031A", "EPOCH": "2025-12-18T07:29:42.636192", "MEAN_MOTION": 14.6449851, "ECCENTRICITY": 0.00132622, "INCLINATION": 97.8256, "RA_OF_ASC_NODE": 180.5131, "ARG_OF_PERICENTER": 290.1072, "MEAN_ANOMALY": 120.5996, "EPHEMERIS_TYPE": 0, "CLASSIFICATION_TYPE": "U", "NORAD_CAT_ID": 29268, "ELEMENT_SET_NO": 999, "REV_AT_EPOCH": 3500, "BSTAR": 6.426376e-05, "MEAN_MOTION_DOT": 2.96e-06, "MEAN_MOTION_DDOT": 0}, "tle": {"line1": "1 29268U 06031A   25352.31229903  .00000296  00000+0  64264-4 0  9995", "line2": "2 29268  97.8256 180.5131 0013262 290.1072 120.5996 14.64498510 35002"}}, "geometry": {"type": "Point", "coordinates": [-8.25380580544574, -48.863758172873844]}}, {"type": "Feature", "properties": {"norad_id": 29709, "name": "LAPAN-TUBSAT", "group": "resource", "lat": -70.24495088911215, "lon": 139.4555278236739, "alt_km": 627.860903639933, "timestamp": "2025-12-18T14:52:07.686957+00:00", "meta": {"OBJECT_NAME": "LAPAN-TUBSAT", "OBJECT_ID": "2007-001A", "EPOCH": "2025-12-18T05:39:24.151680", "MEAN_MOTION": 14.85678524, "ECCENTRICITY": 0.00135456, "INCLINATION": 98.1255, "RA_OF_ASC_NODE": 342.5058, "ARG_OF_PERICENTER": 57.6409, "MEAN_ANOMALY": 302.6114, "EPHEMERIS_TYPE": 0, "CLASSIFICATION_TYPE": "U", "NORAD_CAT_ID": 29709, "ELEMENT_SET_NO": 999, "REV_AT_EPOCH": 2428, "BSTAR": 3.2480921e-05, "MEAN_MOTION_DOT": 2.24e-06, "MEAN_MOTION_DDOT": 0}, "tle": {"line1": "1 29709U 07001A   25352.23569620  .00000224  00000+0  32481-4 0  9994", "line2": "2 29709  98.1255 342.5058 0013545  57.6409 302.6114 14.85678524 24288"}}, "geometry": {"type": "Point", "coordinates": [139.4555278236739, -70.24495088911215]}}, {"type": "Feature", "properties": {"norad_id": 31113, "name": "HAIYANG-1B", "group": "resource", "lat": 59.781060544742544, "lon": -37.9171400478323, "alt_km": 774.9403457089402, "timestamp": "2025-12-18T14:52:07.686968+00:00", "meta": {"OBJECT_NAME": "HAIYANG-1B", "OBJECT_ID": "2007-010A", "EPOCH": "2025-12-17T21:48:16.917696", "MEAN_MOTION": 14.3096685, "ECCENTRICITY": 0.00140197, "INCLINATION": 98.3317, "RA_OF_ASC_NODE": 335.9732, "ARG_OF_PERICENTER": 23.3851, "MEAN_ANOMALY": 336.7967, "EPHEMERIS_TYPE": 0, "CLASSIFICATION_TYPE": "U", "NORAD_CAT_ID": 31113, "ELEMENT_SET_NO": 999, "REV_AT_EPOCH": 97470, "BSTAR": 5.3781568e-05, "MEAN_MOTION_DOT": 1e-06, "MEAN_MOTION_DDOT": 0}, "tle": {"line1": "1 31113U 07010A   25351.90852914  .00000100  00000+0  53782-4 0  9990", "line2": "2 31113  98.3317 335.9732 0014019  23.3851 336.7967 14.30966850974701"}}, "geometry": {"type": "Point", "coordinates": [-37.9171400478323, 59.781060544742544]}}, {"type": "Feature", "properties": {"norad_id": 31598, "name": "COSMO-SKYMED 1", "group": "resource", "lat": 60.578481265050236, "lon": 163.83424477342763, "alt_km": 572.9918566568558, "timestamp": "2025-12-18T14:52:07.686979+00:00", "meta": {"OBJECT_NAME": "COSMO-SKYMED 1", "OBJECT_ID": "2007-023A", "EPOCH": "2025-12-18T06:34:02.033760", "MEAN_MOTION": 14.95808345, "ECCENTRICITY": 0.00015698, "INCLINATION": 97.8835, "RA_OF_ASC_NODE": 177.709, "ARG_OF_PERICENTER": 87.1417, "MEAN_ANOMALY": 272.9983, "EPHEMERIS_TYPE": 0, "CLASSIFICATION_TYPE": "U", "NORAD_CAT_ID": 31598, "ELEMENT_SET_NO": 999, "REV_AT_EPOCH": 273, "BSTAR": 0.00033191182, "MEAN_MOTION_DOT": 3.646e-05, "MEAN_MOTION_DDOT": 0}, "tle": {"line1": "1 31598U 07023A   25352.27363465  .00003646  00000+0  33191-3 0  9999", "line2": "2 31598  97.8835 177.7090 0001569  87.1417 272.9983 14.95808345  2737"}}, "geometry": {"type": "Point", "coordinates": [163.83424477342763, 60.578481265050236]}}, {"type": "Feature", "properties": {"norad_id": 31698, "name": "TERRASAR-X", "group": "resource", "lat": -30.887705958116445, "lon": 173.42784345616292, "alt_km": 515.1874881867334, "timestamp": "2025-12-18T14:52:07.686990+00:00", "meta": {"OBJECT_NAME": "TERRASAR-X", "OBJECT_ID": "2007-026A", "EPOCH": "2025-12-17T14:13:48.329472", "MEAN_MOTION": 15.19149756, "ECCENTRICITY": 0.00018426, "INCLINATION": 97.4455, "RA_OF_ASC_NODE": 356.9029, "ARG_OF_PERICENTER": 91.3746, "MEAN_ANOMALY": 268.77, "EPHEMERIS_TYPE": 0, "CLASSIFICATION_TYPE": "U", "NORAD_CAT_ID": 31698, "ELEMENT_SET_NO": 999, "REV_AT_EPOCH": 2565, "BSTAR": 4.5889707e-05, "MEAN_MOTION_DOT": 8.97e-06, "MEAN_MOTION_DDOT": 0}, "tle": {"line1": "1 31698U 07026A   25351.59292048  .00000897  00000+0  45890-4 0  9990", "line2": "2 31698  97.4455 356.9029 0001842  91.3746 268.7700 15.19149756 25658"}}, "geometry": {"type": "Point", "coordinates": [173.42784345616292, -30.887705958116445]}}, {"type": "Feature", "properties": {"norad_id": 32060, "name": "WORLDVIEW-1 (WV-1)", "group": "resource", "lat": -29.351363700470817, "lon": 114.20000869320079, "alt_km": 497.94252729931577, "timestamp": "2025-12-18T14:52:07.687001+00:00", "meta": {"OBJECT_NAME": "WORLDVIEW-1 (WV-1)", "OBJECT_ID": "2007-041A", "EPOCH": "2025-12-18T07:07:24.333888", "MEAN_MOTION": 15.24779912, "ECCENTRICITY": 9.076e-05, "INCLINATION": 97.3839, "RA_OF_ASC_NODE": 109.6997, "ARG_OF_PERICENTER": 117.1152, "MEAN_ANOMALY": 243.0178, "EPHEMERIS_TYPE": 0, "CLASSIFICATION_TYPE": "U", "NORAD_CAT_ID": 32060, "ELEMENT_SET_NO": 999, "REV_AT_EPOCH": 1532, "BSTAR": 0.00030222175, "MEAN_MOTION_DOT": 7.422e-05, "MEAN_MOTION_DDOT": 0}, "tle": {"line1": "1 32060U 07041A   25352.29680942  .00007422  00000+0  30222-3 0  9996", "line2": "2 32060  97.3839 109.6997 0000907 117.1152 243.0178 15.24779912 15320"}}, "geometry": {"type": "Point", "coordinates": [114.20000869320079, -29.351363700470817]}}]}